     2.11           N: GPS NAV DATA                         RINEX VERSION / TYPE
teqc  2019Feb25     CORS-ADM Account    20260512 17:45:01UTCPGM / RUN BY / DATE
Linux 2.4.21-27.ELsmp|Opteron|gcc|Linux 64|=+               COMMENT
     2.10           N: GPS NAV DATA                         COMMENT
rvacn.e(1404.07)                        2026-05-12T17:26 UTCCOMMENT
This file contains the validated broadcast navigation       COMMENT
messages from the following files:                          COMMENT
aaaa1320.26n, abmf132q.26n, abpo132q.26n, albh132q.26n,     COMMENT
alic132q.26n, areq132q.26n, aruc132q.26n, baie132q.26n,     COMMENT
brew132q.26n, brst132q.26n, brux132q.26n, bshm132q.26n,     COMMENT
bucu132q.26n, cebr132q.26n, chpi132q.26n, chum132q.26n,     COMMENT
chur132q.26n, ckis132q.26n, coco132q.26n, cro1132q.26n,     COMMENT
darw132q.26n, dav1132q.26n, dgar132q.26n, djig132q.26n,     COMMENT
dlf1132q.26n, drao132q.26n, dubo132q.26n, ebre132q.26n,     COMMENT
faa1132q.26n, fair132q.26n, falk132q.26n, flin132q.26n,     COMMENT
glps132q.26n, glsv132q.26n, gode132q.26n, guam132q.26n,     COMMENT
harb132q.26n, hers132q.26n, hlfx132q.26n, hob2132q.26n,     COMMENT
hofn132q.26n, holb132q.26n, hrao132q.26n, iisc132q.26n,     COMMENT
iqal132q.26n, ista132q.26n, joze132q.26n, karr132q.26n,     COMMENT
kat1132q.26n, kiri132q.26n, kiru132q.26n, kokb132q.26n,     COMMENT
koug132q.26n, kour132q.26n, lmmf132q.26n, lpal132q.26n,     COMMENT
m0se132q.26n, mac1132q.26n, maju132q.26n, mar6132q.26n,     COMMENT
mas1132q.26n, mat1132q.26n, mate132q.26n, maw1132q.26n,     COMMENT
mcm4132q.26n, mdo1132q.26n, medi132q.26n, met3132q.26n,     COMMENT
mkea132q.26n, mobs132q.26n, mro1132q.26n, nain132q.26n,     COMMENT
nano132q.26n, naur132q.26n, nico132q.26n, nklg132q.26n,     COMMENT
nlib132q.26n, nnor132q.26n, not1132q.26n, nrc1132q.26n,     COMMENT
onsa132q.26n, orid132q.26n, palm132q.26n, pert132q.26n,     COMMENT
picl132q.26n, pimo132q.26n, pohn132q.26n, prds132q.26n,     COMMENT
ptvl132q.26n, qaq1132q.26n, qiki132q.26n, reso132q.26n,     COMMENT
reun132q.26n, reyk132q.26n, riga132q.26n, sant132q.26n,     COMMENT
sask132q.26n, sch2132q.26n, scor132q.26n, seyg132q.26n,     COMMENT
solo132q.26n, stj3132q.26n, stjo132q.26n, stpm132q.26n,     COMMENT
suth132q.26n, suwn132q.26n, sydn132q.26n, thtg132q.26n,     COMMENT
thu2132q.26n, tid1132q.26n, tow2132q.26n, tuva132q.26n,     COMMENT
unbj132q.26n, vacs132q.26n, vald132q.26n, vill132q.26n,     COMMENT
vis0132q.26n, warn132q.26n, whit132q.26n, will132q.26n,     COMMENT
wsrt132q.26n, xmis132q.26n, yar2132q.26n, yebe132q.26n,     COMMENT
yell132q.26n, zim2132q.26n, zimm132q.26n                    COMMENT
    1.4900D-08  2.2350D-08 -1.1920D-07 -1.1920D-07          ION ALPHA
    1.0850D+05  1.3110D+05 -1.3110D+05 -3.9320D+05          ION BETA
   -9.313225746150D-10-1.776356839400D-15   405504     2418 DELTA-UTC: A0,A1,T,W
                                                            END OF HEADER
 9 26  5 12  6  0  0.0 7.510175928473D-04-4.206412995700D-12 0.000000000000D+00
    1.700000000000D+01-1.318750000000D+01 4.804485840406D-09-8.380275878071D-01
   -8.959323167801D-07 3.408202319406D-03 4.889443516731D-06 5.153734891891D+03
    1.944000000000D+05-1.862645149231D-09-2.406041925715D+00-5.587935447693D-08
    9.655738692159D-01 2.920312500000D+02 2.043959661090D+00-8.382492021582D-09
    1.896507568581D-10 1.000000000000D+00 2.418000000000D+03 0.000000000000D+00
    2.000000000000D+00 0.000000000000D+00 4.656612873077D-10 1.700000000000D+01
    1.874920000000D+05 4.000000000000D+00
10 26  5 12  6  0  0.0-5.855890922248D-04 2.160049916711D-12 0.000000000000D+00
    5.200000000000D+01 2.753125000000D+01 3.675153084878D-09 6.065081124116D-01
    1.434236764908D-06 1.095062354580D-02 9.629875421524D-06 5.153652215958D+03
    1.944000000000D+05-1.341104507446D-07 2.870522523757D+00 1.098960638046D-07
    9.939794592799D-01 2.130312500000D+02-2.259999287847D+00-7.826040271705D-09
    3.714440435639D-10 1.000000000000D+00 2.418000000000D+03 0.000000000000D+00
    2.000000000000D+00 0.000000000000D+00 2.328306436539D-09 5.200000000000D+01
    1.872180000000D+05 4.000000000000D+00
11 26  5 12  6  0  0.0-3.431160002947D-04 1.261923898710D-11 0.000000000000D+00
    1.160000000000D+02-3.759375000000D+01 4.205889477893D-09-2.209395772374D+00
   -1.849606633186D-06 2.276138053276D-03 9.197741746902D-06 5.153610549927D+03
    1.944000000000D+05-2.793967723846D-08 1.853185748694D+00-6.332993507385D-08
    9.629972008817D-01 2.051875000000D+02-2.345644922715D+00-7.909258023772D-09
   -2.653681965077D-10 1.000000000000D+00 2.418000000000D+03 0.000000000000D+00
    2.000000000000D+00 0.000000000000D+00-8.847564458847D-09 8.840000000000D+02
    1.872180000000D+05 4.000000000000D+00
12 26  5 12  6  0  0.0-6.077052094042D-04 2.273736754432D-13 0.000000000000D+00
    2.000000000000D+01 6.940625000000D+01 4.658051169385D-09 1.320834725314D+00
    3.322958946228D-06 8.818336063996D-03 9.566545486450D-06 5.153736602783D+03
    1.944000000000D+05-7.264316082001D-08-2.147715620519D-01-1.788139343262D-07
    9.592657284223D-01 1.933437500000D+02 1.579842513342D+00-8.145339286076D-09
    2.067943280995D-10 1.000000000000D+00 2.418000000000D+03 0.000000000000D+00
    2.000000000000D+00 0.000000000000D+00-1.257285475731D-08 2.000000000000D+01
    1.872180000000D+05 4.000000000000D+00
13 26  5 12  6  0  0.0 2.938825637102D-04 2.694378054002D-11 0.000000000000D+00
    9.400000000000D+01 6.800000000000D+01 4.573404786381D-09-1.763394489259D+00
    3.434717655182D-06 2.269481774420D-04 1.026503741741D-05 5.153616916656D+03
    1.944000000000D+05 9.313225746155D-09-3.233187098535D-01 3.352761268616D-08
    9.596741429658D-01 1.787812500000D+02-1.583321170151D+00-8.028191549260D-09
    2.017941198208D-10 1.000000000000D+00 2.418000000000D+03 0.000000000000D+00
    2.000000000000D+00 6.300000000000D+01-8.381903171539D-09 9.400000000000D+01
    1.875480000000D+05 4.000000000000D+00
14 26  5 12  6  0  0.0 7.460494525731D-04 1.023181539495D-12 0.000000000000D+00
    3.900000000000D+01 7.200000000000D+01 5.053781938875D-09 1.196912033470D+00
    3.939494490623D-06 7.105979602784D-03 9.270384907722D-06 5.153662862778D+03
    1.944000000000D+05-5.587935447693D-09-2.704942682234D-01 1.210719347000D-07
    9.425713783613D-01 1.916250000000D+02-2.712529691384D+00-8.385706441190D-09
    4.143029716675D-11 1.000000000000D+00 2.418000000000D+03 0.000000000000D+00
    2.000000000000D+00 0.000000000000D+00-8.381903171539D-09 3.900000000000D+01
    1.872180000000D+05 4.000000000000D+00
15 26  5 12  6  0  0.0 4.108571447432D-04 3.296918293927D-12 0.000000000000D+00
    1.600000000000D+01-5.000000000000D+00 5.187001773730D-09-2.440279440165D+00
   -2.775341272354D-07 1.673426397610D-02 3.799796104431D-06 5.153724138260D+03
    1.944000000000D+05 1.639127731323D-07-2.551758142672D+00 7.823109626770D-08
    9.436692588810D-01 2.875000000000D+02 1.515440581920D+00-8.314632052085D-09
    3.403713206889D-10 1.000000000000D+00 2.418000000000D+03 0.000000000000D+00
    2.000000000000D+00 0.000000000000D+00-1.117587089539D-08 1.600000000000D+01
    1.872180000000D+05 4.000000000000D+00
16 26  5 12  6  0  0.0 2.615530975163D-04 6.934897101019D-12 0.000000000000D+00
    5.900000000000D+01 6.196875000000D+01 4.757341019492D-09-3.872409796954D-01
    3.393739461899D-06 1.498225459363D-02 9.300187230110D-06 5.153682748795D+03
    1.944000000000D+05-7.450580596924D-08-1.979161695800D-01 1.583248376846D-07
    9.583705776271D-01 1.983437500000D+02 9.342141194365D-01-8.385349283456D-09
    1.150047904111D-10 1.000000000000D+00 2.418000000000D+03 0.000000000000D+00
    2.000000000000D+00 0.000000000000D+00-1.071020960808D-08 5.900000000000D+01
    1.872180000000D+05 4.000000000000D+00
17 26  5 12  6  0  0.0-1.331679522991D-04-8.185452315956D-12 0.000000000000D+00
    9.000000000000D+00 1.093750000000D+01 4.948063249553D-09-1.463145554251D+00
    6.500631570816D-07 1.258214015979D-02 4.258006811142D-06 5.153631046295D+03
    1.944000000000D+05-2.905726432800D-07 8.181424715122D-01 6.705522537231D-08
    9.583640222912D-01 2.997187500000D+02-1.110427916866D+00-8.573571409377D-09
   -1.860791795162D-10 1.000000000000D+00 2.418000000000D+03 0.000000000000D+00
    2.000000000000D+00 0.000000000000D+00-1.117587089539D-08 9.000000000000D+00
    1.872180000000D+05 4.000000000000D+00
18 26  5 12  6  0  0.0-3.546336665750D-04 9.322320693173D-12 0.000000000000D+00
    8.500000000000D+01-4.475000000000D+01 4.089813214279D-09 2.840964882779D+00
   -2.298504114151D-06 5.960665293969D-03 9.782612323761D-06 5.153630373001D+03
    1.944000000000D+05-5.401670932770D-08 1.829907067683D+00-7.264316082001D-08
    9.710685836700D-01 1.951875000000D+02-2.873305017350D+00-7.882114035973D-09
   -3.157274370293D-10 1.000000000000D+00 2.418000000000D+03 0.000000000000D+00
    2.000000000000D+00 0.000000000000D+00-8.381903171539D-09 3.410000000000D+02
    1.872180000000D+05 4.000000000000D+00
19 26  5 12  6  0  0.0 6.995555013418D-04 9.094947017729D-13 0.000000000000D+00
    5.500000000000D+01-9.375000000000D-01 4.997708174606D-09 2.644473109720D-01
   -3.036111593246D-07 1.147709938232D-02 4.060566425323D-06 5.153733554840D+03
    1.944000000000D+05 1.713633537292D-07 8.619797099891D-01-2.421438694000D-08
    9.574977597393D-01 2.990937500000D+02 2.971300166304D+00-8.613215917873D-09
   -2.900120801672D-10 1.000000000000D+00 2.418000000000D+03 0.000000000000D+00
    2.000000000000D+00 0.000000000000D+00-1.536682248116D-08 5.500000000000D+01
    1.872180000000D+05 4.000000000000D+00
